IRIDIUM 136             
1 42962U 17061H   24198.84739055  .00000164  00000+0  51461-4 0  9994
2 42962  86.3989 317.9225 0002284 102.2055 257.9397 14.34216859354454
